start=new Date('2021-10-28T00:00:00.000Z').valueOf();
sats=[{"MEAN_ELEMENT_THEORY":"SGP4","REF_FRAME":"TEME","LAUNCH_DATE":"2021-05-26","ARG_OF_PERICENTER":"95.1654","RCS_SIZE":"LARGE","RA_OF_ASC_NODE":"67.3040","COUNTRY_CODE":"US","NORAD_CAT_ID":"48673","CENTER_NAME":"EARTH","APOAPSIS":"548.197","TLE_LINE1":"1 48673U 21044AM  21300.69976631  .00000405  00000-0  46075-4 0  9997","SITE":"AFETR","MEAN_MOTION_DDOT":"0.0000000000000","MEAN_ANOMALY":"264.9495","DECAY_DATE":null,"CLASSIFICATION_TYPE":"U","GP_ID":"188278208","FILE":"3187349","PERIAPSIS":"546.250","REV_AT_EPOCH":"2449","OBJECT_TYPE":"PAYLOAD","EPOCH":"2021-10-27T16:47:39.809184","BSTAR":"0.00004607500000","INCLINATION":"53.0559","ECCENTRICITY":"0.00014060","OBJECT_NAME":"STARLINK-2711","ELEMENT_SET_NO":"999","MEAN_MOTION_DOT":"0.00000405","MEAN_MOTION":"15.06396807","PERIOD":"95.592","TLE_LINE2":"2 48673  53.0559  67.3040 0001406  95.1654 264.9495 15.06396807 24491","SEMIMAJOR_AXIS":"6925.358","OBJECT_ID":"2021-044AM","EPHEMERIS_TYPE":"0","TIME_SYSTEM":"UTC"},{"NORAD_CAT_ID":"48674","CENTER_NAME":"EARTH","COUNTRY_CODE":"US","RA_OF_ASC_NODE":"67.3209","RCS_SIZE":"LARGE","ARG_OF_PERICENTER":"93.2899","LAUNCH_DATE":"2021-05-26","REF_FRAME":"TEME","MEAN_ELEMENT_THEORY":"SGP4","DECAY_DATE":null,"CLASSIFICATION_TYPE":"U","MEAN_ANOMALY":"266.8236","MEAN_MOTION_DDOT":"0.0000000000000","SITE":"AFETR","TLE_LINE1":"1 48674U 21044AN  21300.69607670  .00000577  00000-0  57607-4 0  9995","APOAPSIS":"548.099","BSTAR":"0.00005760700000","OBJECT_TYPE":"PAYLOAD","EPOCH":"2021-10-27T16:42:21.026880","REV_AT_EPOCH":"2449","PERIAPSIS":"546.329","FILE":"3187349","GP_ID":"188277711","EPHEMERIS_TYPE":"0","TIME_SYSTEM":"UTC","OBJECT_ID":"2021-044AN","SEMIMAJOR_AXIS":"6925.349","TLE_LINE2":"2 48674  53.0560  67.3209 0001278  93.2899 266.8236 15.06399739 24499","PERIOD":"95.592","MEAN_MOTION":"15.06399739","MEAN_MOTION_DOT":"0.00000577","ELEMENT_SET_NO":"999","OBJECT_NAME":"STARLINK-2712","ECCENTRICITY":"0.00012780","INCLINATION":"53.0560"},{"ARG_OF_PERICENTER":"88.0146","MEAN_ELEMENT_THEORY":"SGP4","REF_FRAME":"TEME","LAUNCH_DATE":"2021-05-26","NORAD_CAT_ID":"48675","CENTER_NAME":"EARTH","RCS_SIZE":"LARGE","COUNTRY_CODE":"US","RA_OF_ASC_NODE":"67.3389","APOAPSIS":"548.058","TLE_LINE1":"1 48675U 21044AP  21300.69239309  .00000422  00000-0  47213-4 0  9997","MEAN_ANOMALY":"272.0981","CLASSIFICATION_TYPE":"U","DECAY_DATE":null,"SITE":"AFETR","MEAN_MOTION_DDOT":"0.0000000000000","GP_ID":"188278764","FILE":"3187358","REV_AT_EPOCH":"2443","PERIAPSIS":"546.392","OBJECT_TYPE":"PAYLOAD","EPOCH":"2021-10-27T16:37:02.762976","BSTAR":"0.00004721300000","ECCENTRICITY":"0.00012030","OBJECT_NAME":"STARLINK-2737","MEAN_MOTION_DOT":"0.00000422","ELEMENT_SET_NO":"999","MEAN_MOTION":"15.06396211","INCLINATION":"53.0568","EPHEMERIS_TYPE":"0","TIME_SYSTEM":"UTC","PERIOD":"95.592","TLE_LINE2":"2 48675  53.0568  67.3389 0001203  88.0146 272.0981 15.06396211 24434","SEMIMAJOR_AXIS":"6925.360","OBJECT_ID":"2021-044AP"},{"GP_ID":"188278264","FILE":"3187358","REV_AT_EPOCH":"2449","PERIAPSIS":"546.326","EPOCH":"2021-10-27T16:31:43.890816","OBJECT_TYPE":"PAYLOAD","BSTAR":"0.00000732910000","INCLINATION":"53.0564","OBJECT_NAME":"STARLINK-2746","ECCENTRICITY":"0.00012730","ELEMENT_SET_NO":"999","MEAN_MOTION_DOT":"-0.00000172","MEAN_MOTION":"15.06401833","PERIOD":"95.592","TLE_LINE2":"2 48676  53.0564  67.3516 0001273  94.2067 265.9067 15.06401833 24490","SEMIMAJOR_AXIS":"6925.343","OBJECT_ID":"2021-044AQ","EPHEMERIS_TYPE":"0","TIME_SYSTEM":"UTC","MEAN_ELEMENT_THEORY":"SGP4","REF_FRAME":"TEME","LAUNCH_DATE":"2021-05-26","ARG_OF_PERICENTER":"94.2067","RCS_SIZE":"LARGE","COUNTRY_CODE":"US","RA_OF_ASC_NODE":"67.3516","NORAD_CAT_ID":"48676","CENTER_NAME":"EARTH","APOAPSIS":"548.090","TLE_LINE1":"1 48676U 21044AQ  21300.68870244 -.00000172  00000-0  73291-5 0  9995","SITE":"AFETR","MEAN_MOTION_DDOT":"0.0000000000000","MEAN_ANOMALY":"265.9067","CLASSIFICATION_TYPE":"U","DECAY_DATE":null},{"REV_AT_EPOCH":"2445","PERIAPSIS":"546.284","BSTAR":"0.00006300700000","OBJECT_TYPE":"PAYLOAD","EPOCH":"2021-10-27T19:37:30.498240","GP_ID":"188287730","FILE":"3187735","TLE_LINE2":"2 48677  53.0564  66.7717 0001360  87.3821 272.7324 15.06396119 24453","PERIOD":"95.592","OBJECT_ID":"2021-044AR","SEMIMAJOR_AXIS":"6925.360","EPHEMERIS_TYPE":"0","TIME_SYSTEM":"UTC","INCLINATION":"53.0564","ECCENTRICITY":"0.00013600","OBJECT_NAME":"STARLINK-2719","MEAN_MOTION":"15.06396119","MEAN_MOTION_DOT":"0.00000657","ELEMENT_SET_NO":"999","RCS_SIZE":"LARGE","RA_OF_ASC_NODE":"66.7717","COUNTRY_CODE":"US","NORAD_CAT_ID":"48677","CENTER_NAME":"EARTH","MEAN_ELEMENT_THEORY":"SGP4","LAUNCH_DATE":"2021-05-26","REF_FRAME":"TEME","ARG_OF_PERICENTER":"87.3821","MEAN_MOTION_DDOT":"0.0000000000000","SITE":"AFETR","DECAY_DATE":null,"CLASSIFICATION_TYPE":"U","MEAN_ANOMALY":"272.7324","APOAPSIS":"548.167","TLE_LINE1":"1 48677U 21044AR  21300.81771410  .00000657  00000-0  63007-4 0  9996"},{"MEAN_ANOMALY":"265.4001","CLASSIFICATION_TYPE":"U","DECAY_DATE":null,"SITE":"AFETR","MEAN_MOTION_DDOT":"0.0000000000000","TLE_LINE1":"1 48678U 21044AS  21300.34960057 -.00000287  00000-0 -38598-6 0  9992","APOAPSIS":"548.153","CENTER_NAME":"EARTH","NORAD_CAT_ID":"48678","RA_OF_ASC_NODE":"68.8764","COUNTRY_CODE":"US","RCS_SIZE":"LARGE","ARG_OF_PERICENTER":"94.7140","REF_FRAME":"TEME","LAUNCH_DATE":"2021-05-26","MEAN_ELEMENT_THEORY":"SGP4","TIME_SYSTEM":"UTC","EPHEMERIS_TYPE":"0","SEMIMAJOR_AXIS":"6925.364","OBJECT_ID":"2021-044AS","PERIOD":"95.592","TLE_LINE2":"2 48678  53.0567  68.8764 0001334  94.7140 265.4001 15.06394815 23540","ELEMENT_SET_NO":"999","MEAN_MOTION_DOT":"-0.00000287","MEAN_MOTION":"15.06394815","ECCENTRICITY":"0.00013340","OBJECT_NAME":"STARLINK-2615","INCLINATION":"53.0567","OBJECT_TYPE":"PAYLOAD","EPOCH":"2021-10-27T08:23:25.489248","BSTAR":"-0.00000038598000","REV_AT_EPOCH":"2354","PERIAPSIS":"546.306","FILE":"3187107","GP_ID":"188274576"},{"LAUNCH_DATE":"2021-05-26","REF_FRAME":"TEME","MEAN_ELEMENT_THEORY":"SGP4","ARG_OF_PERICENTER":"80.3467","RA_OF_ASC_NODE":"67.4054","COUNTRY_CODE":"US","RCS_SIZE":"LARGE","NORAD_CAT_ID":"48679","CENTER_NAME":"EARTH","TLE_LINE1":"1 48679U 21044AT  21300.67763590 -.00004464  00000-0 -28075-3 0  9999","APOAPSIS":"548.099","MEAN_MOTION_DDOT":"0.0000000000000","SITE":"AFETR","DECAY_DATE":null,"CLASSIFICATION_TYPE":"U","MEAN_ANOMALY":"279.7681","FILE":"3187369","GP_ID":"188278441","BSTAR":"-0.00028075000000","EPOCH":"2021-10-27T16:15:47.741760","OBJECT_TYPE":"PAYLOAD","REV_AT_EPOCH":"2443","PERIAPSIS":"546.144","INCLINATION":"53.0572","MEAN_MOTION":"15.06430049","MEAN_MOTION_DOT":"-0.00004464","ELEMENT_SET_NO":"999","OBJECT_NAME":"STARLINK-2648","ECCENTRICITY":"0.00014110","OBJECT_ID":"2021-044AT","SEMIMAJOR_AXIS":"6925.256","TLE_LINE2":"2 48679  53.0572  67.4054 0001411  80.3467 279.7681 15.06430049 24434","PERIOD":"95.590","TIME_SYSTEM":"UTC","EPHEMERIS_TYPE":"0"},{"MEAN_MOTION_DOT":"0.00000138","ELEMENT_SET_NO":"999","MEAN_MOTION":"15.06394427","OBJECT_NAME":"STARLINK-2649","ECCENTRICITY":"0.00011970","INCLINATION":"53.0562","TIME_SYSTEM":"UTC","EPHEMERIS_TYPE":"0","SEMIMAJOR_AXIS":"6925.366","OBJECT_ID":"2021-044AU","PERIOD":"95.592","TLE_LINE2":"2 48680  53.0562  67.4175 0001197  84.1199 275.9926 15.06394427 24499","FILE":"3187370","GP_ID":"188278467","EPOCH":"2021-10-27T16:10:30.381600","OBJECT_TYPE":"PAYLOAD","BSTAR":"0.00002813300000","PERIAPSIS":"546.402","REV_AT_EPOCH":"2449","TLE_LINE1":"1 48680U 21044AU  21300.67396275  .00000138  00000-0  28133-4 0  9991","APOAPSIS":"548.060","MEAN_ANOMALY":"275.9926","DECAY_DATE":null,"CLASSIFICATION_TYPE":"U","SITE":"AFETR","MEAN_MOTION_DDOT":"0.0000000000000","ARG_OF_PERICENTER":"84.1199","REF_FRAME":"TEME","LAUNCH_DATE":"2021-05-26","MEAN_ELEMENT_THEORY":"SGP4","NORAD_CAT_ID":"48680","CENTER_NAME":"EARTH","RA_OF_ASC_NODE":"67.4175","COUNTRY_CODE":"US","RCS_SIZE":"LARGE"},{"NORAD_CAT_ID":"48681","CENTER_NAME":"EARTH","COUNTRY_CODE":"US","RA_OF_ASC_NODE":"37.5930","RCS_SIZE":"LARGE","ARG_OF_PERICENTER":"57.0683","LAUNCH_DATE":"2021-05-26","REF_FRAME":"TEME","MEAN_ELEMENT_THEORY":"SGP4","DECAY_DATE":null,"CLASSIFICATION_TYPE":"U","MEAN_ANOMALY":"33.6862","MEAN_MOTION_DDOT":"0.0000000000000","SITE":"AFETR","TLE_LINE1":"1 48681U 21044AV  21300.66667824  .00002237  00000-0  16903-3 0  9995","APOAPSIS":"548.370","BSTAR":"0.00016903000000","OBJECT_TYPE":"PAYLOAD","EPOCH":"2021-10-27T16:00:00.999936","PERIAPSIS":"546.099","REV_AT_EPOCH":"359","FILE":"3187107","GP_ID":"188274241","TIME_SYSTEM":"UTC","EPHEMERIS_TYPE":"0","OBJECT_ID":"2021-044AV","SEMIMAJOR_AXIS":"6925.369","TLE_LINE2":"2 48681  53.0285  37.5930 0001640  57.0683  33.6862 15.06393184  3594","PERIOD":"95.593","MEAN_MOTION":"15.06393184","ELEMENT_SET_NO":"999","MEAN_MOTION_DOT":"0.00002237","ECCENTRICITY":"0.00016400","OBJECT_NAME":"STARLINK-2725","INCLINATION":"53.0285"},{"TLE_LINE1":"1 48682U 21044AW  21300.66667824  .00022738  00000-0  15407-2 0  9991","APOAPSIS":"548.261","MEAN_MOTION_DDOT":"0.0000000000000","SITE":"AFETR","DECAY_DATE":null,"CLASSIFICATION_TYPE":"U","MEAN_ANOMALY":"4.2364","LAUNCH_DATE":"2021-05-26","REF_FRAME":"TEME","MEAN_ELEMENT_THEORY":"SGP4","ARG_OF_PERICENTER":"61.4892","RA_OF_ASC_NODE":"27.4760","COUNTRY_CODE":"US","RCS_SIZE":"LARGE","NORAD_CAT_ID":"48682","CENTER_NAME":"EARTH","INCLINATION":"53.0478","MEAN_MOTION":"15.06394783","ELEMENT_SET_NO":"999","MEAN_MOTION_DOT":"0.00022738","OBJECT_NAME":"STARLINK-2743","ECCENTRICITY":"0.00014890","OBJECT_ID":"2021-044AW","SEMIMAJOR_AXIS":"6925.365","TLE_LINE2":"2 48682  53.0478  27.4760 0001489  61.4892   4.2364 15.06394783  3632","PERIOD":"95.592","TIME_SYSTEM":"UTC","EPHEMERIS_TYPE":"0","FILE":"3187107","GP_ID":"188274466","BSTAR":"0.00154070000000","EPOCH":"2021-10-27T16:00:00.999936","OBJECT_TYPE":"PAYLOAD","PERIAPSIS":"546.198","REV_AT_EPOCH":"363"}];
